satname,norad_id,inclination_deg,eccentricity,mean_motion_rev_per_day,perigee_km,apogee_km,l1,l2
STARLINK-1274,45387,53.0333,0.0004785,15.32247246,465.83276162610036,472.3855762097546,1 45387U 20019AD  25332.40401021  .00062270  00000+0  19671-2 0  9998,2 45387  53.0333 221.7446 0004785  62.9556 297.1932 15.32247246315018
STARLINK-1280,45388,53.053,0.0009931,15.44596508,425.8002045323092,439.3276186829444,1 45388U 20019AE  25332.18453995  .00087989  00000+0  18471-2 0  9992,2 45388  53.0530 252.7469 0009931  90.7935 269.4208 15.44596508314552
STARLINK-1283,45389,53.0516,0.0009497,15.34165274,456.9035756707126,469.8983929180813,1 45389U 20019AF  25332.44811387  .00063914  00000+0  18983-2 0  9995,2 45389  53.0516 232.4930 0009497  99.7875 260.4199 15.34165274314870
STARLINK-1284,45390,53.0536,0.0001392,15.06399739,546.2483492351867,548.1763664964174,1 45390U 20019AG  25332.44114362  .00006552  00000+0  45831-3 0  9994,2 45390  53.0536 241.1449 0001392  99.9263 260.1884 15.06399739314743
STARLINK-1297,45395,53.0538,0.000143,15.06397163,546.2299268611496,548.2105790354926,1 45395U 20019AM  25332.07993232  .00011830  00000+0  81179-3 0  9999,2 45395  53.0538 242.7628 0001430  87.4432 272.6721 15.06397163313879
STARLINK-1307,45397,53.0539,0.0001474,15.06391327,546.2173392660998,548.2589398572418,1 45397U 20019AP  25332.47063947  .00006102  00000+0  42829-3 0  9991,2 45397  53.0539 241.0082 0001474  85.0084 275.1074 15.06391327314576
STARLINK-1255,45399,53.0458,0.0007138,15.34042934,458.8809720065565,468.6484709041051,1 45399U 20019AR  25331.87013220  .00062448  00000+0  18637-2 0  9999,2 45399  53.0458 226.2743 0007138 105.5240 254.6549 15.34042934314715
STARLINK-1260,45404,53.0553,0.0001744,15.06394273,546.0213265743887,548.4368942737037,1 45404U 20019AW  25332.13982624  .00008523  00000+0  59049-3 0  9996,2 45404  53.0553 232.4897 0001744  85.3416 274.7772 15.06394273314552
STARLINK-1263,45405,53.0533,0.000163,15.06402017,546.0765453233671,548.334206937986,1 45405U 20019AX  25332.45681720  .00006374  00000+0  44639-3 0  9996,2 45405  53.0533 231.0711 0001630  92.7269 267.3906 15.06402017314602
STARLINK-1265,45406,53.0544,0.0001373,15.06395014,546.2759868971689,548.1776918074547,1 45406U 20019AY  25332.46419442  .00009801  00000+0  67603-3 0  9992,2 45406  53.0544 231.0382 0001373 103.5016 256.6127 15.06395014314608
STARLINK-1278,45408,53.0518,0.0008924,15.37437584,447.59304621915817,459.78649063544617,1 45408U 20019BA  25332.80409705  .00053338  00000+0  14306-2 0  9998,2 45408  53.0518 251.5910 0008924  88.0388 272.1637 15.37437584314357
STARLINK-1296,45412,53.0531,0.0001354,15.06395294,546.2882870403855,548.1636753356916,1 45412U 20019BE  25332.00344222  .00011172  00000+0  76781-3 0  9993,2 45412  53.0531 233.1040 0001354  84.8636 275.2508 15.06395294314535
STARLINK-1298,45413,53.0455,0.0008792,15.5741206,389.19504552568014,401.10519359671616,1 45413U 20019BF  25332.78977904  .00099385  00000+0  13197-2 0  9991,2 45413  53.0455 195.9229 0008792  62.1619 298.0282 15.57412060315224
STARLINK-1309,45414,53.0545,0.0001309,15.06410713,546.2722005025007,548.0852481591319,1 45414U 20019BG  25332.15087219  .00008983  00000+0  62098-3 0  9993,2 45414  53.0545 232.4445 0001309  85.4499 274.6639 15.06410713314540
STARLINK-1316,45415,53.0539,0.0001451,15.06395482,546.2205349072101,548.2302750771387,1 45415U 20019BH  25332.44206995  .00002387  00000+0  17909-3 0  9993,2 45415  53.0539 231.1361 0001451  85.6503 274.4652 15.06395482314620
STARLINK-1318,45416,53.048,0.0005282,15.64318759,371.6315976745518,378.7658215181691,1 45416U 20019BJ  25332.77199683  .00068229  00000+0  70002-3 0  9995,2 45416  53.0480 186.0446 0005282 130.3388 229.8088 15.64318759315278
STARLINK-1286,45417,53.0524,0.0005234,15.38999368,445.49364720466565,452.64036435791786,1 45417U 20019BK  25332.80286553  .00030447  00000+0  78354-3 0  9992,2 45417  53.0524 251.6905 0005234  89.8596 270.3007 15.38999368314625
STARLINK-1308,45419,53.0553,0.0001921,15.06380664,545.9404497849482,548.6011914696337,1 45419U 20019BM  25332.80790833  .00013303  00000+0  91072-3 0  9999,2 45419  53.0553 259.4925 0001921  93.5163 266.6045 15.06380664314266
STARLINK-1329,45531,53.0541,0.0001402,15.06396625,546.2509665284624,548.1928371645399,1 45531U 20025A   25332.77655921  .00000976  00000+0  84391-4 0  9994,2 45531  53.0541 199.6360 0001402  92.1935 267.9214 15.06396625309880
STARLINK-1338,45532,53.0527,0.0001307,15.06391081,546.3337468942946,548.1440401528616,1 45532U 20025B   25332.78762141  .00001581  00000+0  12500-3 0  9994,2 45532  53.0527 199.5844 0001307  91.7596 268.3542 15.06391081309883
STARLINK-1350,45535,53.072,0.0002272,15.33158391,464.84097614680377,467.9511319665671,1 45535U 20025E   25332.45820250  .00011666  00000+0  36996-3 0  9997,2 45535  53.0720 147.5217 0002272 102.0317 258.0939 15.33158391310611
STARLINK-1362,45538,53.0523,9.52e-05,15.06414704,546.5072037701102,547.8257815551133,1 45538U 20025H   25332.35537998  .00016684  00000+0  11359-2 0  9993,2 45538  53.0523 201.2440 0000952  88.1887 271.9211 15.06414704309821
STARLINK-1368,45540,53.053,0.0001669,15.06394376,546.0729511907566,548.3846382930415,1 45540U 20025K   25332.36005708  .00001404  00000+0  11312-3 0  9990,2 45540  53.0530 201.5062 0001669  90.5183 269.5997 15.06394376309812
STARLINK-1371,45542,53.0536,0.0001904,15.06391037,545.9204367827715,548.5576199743782,1 45542U 20025M   25332.79499436  .00000146  00000+0  28718-4 0  9995,2 45542  53.0536 199.5493 0001904  93.7488 266.3719 15.06391037309884
STARLINK-1372,45543,53.0527,0.0001479,15.06399899,546.1876083912475,548.2361265862501,1 45543U 20025N   25332.36744030  .00006954  00000+0  48529-3 0  9996,2 45543  53.0527 201.4693 0001479  96.9333 263.1824 15.06399899308910
STARLINK-1373,45544,53.0533,0.0001489,15.0639369,546.199709967078,548.2620845268775,1 45544U 20025P   25332.78393711  .00001003  00000+0  86207-4 0  9995,2 45544  53.0533 199.5987 0001489  93.7820 266.3340 15.06393690309886
STARLINK-1294,45551,53.0457,0.0004411,15.64898849,370.55152372734574,376.50784407588344,1 45551U 20025W   25332.64196199  .00084451  00000+0  84397-3 0  9994,2 45551  53.0457 122.1410 0004411 143.3027 216.8290 15.64898849310966
STARLINK-1325,45554,53.0507,0.0006027,15.72984342,346.317821460143,354.4283675280458,1 45554U 20025Z   25332.91667823  .00121692  00000+0  86605-3 0  9997,2 45554  53.0507 112.8888 0006027 316.3413  36.3172 15.72984342  5953
STARLINK-1327,45555,53.0535,0.000151,15.06396616,546.1762002319638,548.2676586286516,1 45555U 20025AA  25332.29185726  .00000445  00000+0  48803-4 0  9997,2 45555  53.0535 181.8094 0001510  80.4751 279.6409 15.06396616310082
STARLINK-1356,45564,53.0527,0.0001442,15.06394681,546.2292223423638,548.2264975679745,1 45564U 20025AK  25332.75997602  .00000451  00000+0  49167-4 0  9993,2 45564  53.0527 179.7073 0001442  94.5941 265.5213 15.06394681310152
STARLINK-1357,45565,53.061,0.0010426,15.36716931,448.7003974477948,462.9505760251377,1 45565U 20025AL  25332.26651552  .00079188  00000+0  21605-2 0  9999,2 45565  53.0610 161.4823 0010426 111.1740 249.0377 15.36716931310373
STARLINK-1361,45567,53.053,0.0001555,15.06390534,546.1636738047091,548.3174662289839,1 45567U 20025AN  25332.77840757  .00000884  00000+0  78288-4 0  9992,2 45567  53.0530 179.6233 0001555  89.9153 270.2014 15.06390534310160
STARLINK-1363,45568,53.0521,0.0007008,15.46267699,422.88623507027296,432.42523416711447,1 45568U 20025AP  25332.77246446  .00097353  00000+0  19287-2 0  9997,2 45568  53.0521 169.8107 0007008 151.3497 208.7896 15.46267699310293
STARLINK-1366,45569,53.0522,0.0004795,15.43663352,432.041334388824,438.57542850963273,1 45569U 20025AQ  25332.83108483  .00090478  00000+0  19619-2 0  9993,2 45569  53.0522 169.3455 0004795 155.6513 204.4719 15.43663352310304
STARLINK-1376,45570,53.0536,0.0001431,15.06392032,546.2449579450495,548.2269996915875,1 45570U 20025AR  25332.84106601  .00000071  00000+0  23671-4 0  9991,2 45570  53.0536 179.3472 0001431  89.7384 270.3769 15.06392032310162
STARLINK-1320,45572,53.0549,0.0007705,15.46388348,422.0581481435074,432.5453292398306,1 45572U 20025AT  25332.91667823  .00134929  00000+0  26455-2 0  9990,2 45572  53.0549 114.7078 0007705 105.1073 170.6169 15.46388348  5842
STARLINK-1321,45573,53.053,0.0001429,15.06394212,546.2396625375577,548.218932225348,1 45573U 20025AU  25332.82723914  .00001117  00000+0  93895-4 0  9991,2 45573  53.0530 169.4088 0001429  88.2615 271.8537 15.06394212310004
STARLINK-1328,45576,53.0502,0.000622,15.79745204,326.98877964030635,335.33514755101896,1 45576U 20025AX  25332.91667823  .00289773  00000+0  14968-2 0  9998,2 45576  53.0502 131.6273 0006220 145.6498 257.0951 15.79745204  5978
STARLINK-1331,45578,53.0541,0.0001438,15.06392627,546.2382868414188,548.2300235856583,1 45578U 20025AZ  25332.80512954  .00001384  00000+0  11182-3 0  9998,2 45578  53.0541 169.5072 0001438  92.0593 268.0561 15.06392627310310
STARLINK-1333,45580,53.0542,0.0001352,15.06387997,546.312033550068,548.1846577475308,1 45580U 20025BB  25332.81158063  .00000766  00000+0  70324-4 0  9996,2 45580  53.0542 179.4762 0001352  94.7468 265.3676 15.06387997310169
STARLINK-1335,45581,53.052,0.000124,15.0639502,546.3680758492756,548.0855660768739,1 45581U 20025BC  25332.81618663  .00000776  00000+0  70972-4 0  9994,2 45581  53.0520 169.4592 0001240  96.8001 263.3129 15.06395020310301
STARLINK-1337,45582,53.0527,0.0001467,15.06397134,546.2043919073767,548.2362917514702,1 45582U 20025BD  25332.83829869  .00000249  00000+0  35639-4 0  9995,2 45582  53.0527 169.3590 0001467  92.3058 267.8099 15.06397134310303
STARLINK-1347,45586,53.0526,0.000965,15.35684835,452.2893743173272,465.4848308353003,1 45586U 20025BH  25331.82412760  .00069833  00000+0  19736-2 0  9997,2 45586  53.0526 154.1883 0009650 112.4409 247.7615 15.35684835310422
